KUIPER-00008            
1 63724U 25088A   25342.84481757 -.00015006  00000+0 -11848-2 0  9992
2 63724  51.8900 141.0158 0010122 157.2195 202.9226 14.99627400 34432
KUIPER-00009            
1 63725U 25088B   25342.88766326  .00001703  00000+0  25244-3 0  9998
2 63725  51.9018 148.1422 0012966 149.2236 210.9489 14.79929807 34334
KUIPER-00010            
1 63726U 25088C   25342.66954721  .00003077  00000+0  42795-3 0  9999
2 63726  51.9010 125.4915 0012034 195.6706 164.3885 14.80364341 34256
KUIPER-00011            
1 63727U 25088D   25343.10817954 -.00008779  00000+0 -11223-2 0  9993
2 63727  51.8987 131.2069 0014662 170.7995 189.3239 14.79902277 34341
KUIPER-00012            
1 63728U 25088E   25343.06910920 -.00002491  00000+0 -32158-3 0  9992
2 63728  51.9018 114.6788 0008617 179.1803 180.9174 14.76743176 34528
KUIPER-00013            
1 63729U 25088F   25342.88673662  .00001202  00000+0  18681-3 0  9993
2 63729  51.9011 149.6151 0008650  84.6585 275.5364 14.79930264 34125
KUIPER-00014            
1 63730U 25088G   25342.88505853  .00001304  00000+0  20022-3 0  9996
2 63730  51.9013 150.5927 0009979 144.3867 215.7763 14.79943801 33920
KUIPER-00015            
1 63731U 25088H   25342.79529204  .00003296  00000+0  43988-3 0  9991
2 63731  51.8976 162.0300 0011204 133.9503 226.2387 14.81951152 34219
