<?xml version="1.0" encoding="UTF-8"?>
<ndm xmlns:xsi="http://www.w3.org/2001/XMLSchema-instance" xsi:noNamespaceSchemaLocation="https://sanaregistry.org/r/ndmxml_unqualified/ndmxml-2.0.0-master-2.0.xsd">
<omm id="CCSDS_OMM_VERS" version="2.0">
<header><CREATION_DATE/><ORIGINATOR/></header><body><segment><metadata><OBJECT_NAME>KUIPER-00008</OBJECT_NAME><OBJECT_ID>2025-088A</OBJECT_ID><CENTER_NAME>EARTH</CENTER_NAME><REF_FRAME>TEME</REF_FRAME><TIME_SYSTEM>UTC</TIME_SYSTEM><MEAN_ELEMENT_THEORY>SGP4</MEAN_ELEMENT_THEORY></metadata><data><meanElements><EPOCH>2025-12-08T20:16:32.238048</EPOCH><MEAN_MOTION>14.99627400</MEAN_MOTION><ECCENTRICITY>.00101222</ECCENTRICITY><INCLINATION>51.8900</INCLINATION><RA_OF_ASC_NODE>141.0158</RA_OF_ASC_NODE><ARG_OF_PERICENTER>157.2195</ARG_OF_PERICENTER><MEAN_ANOMALY>202.9226</MEAN_ANOMALY></meanElements><tleParameters><EPHEMERIS_TYPE>0</EPHEMERIS_TYPE><CLASSIFICATION_TYPE>U</CLASSIFICATION_TYPE><NORAD_CAT_ID>63724</NORAD_CAT_ID><ELEMENT_SET_NO>999</ELEMENT_SET_NO><REV_AT_EPOCH>3443</REV_AT_EPOCH><BSTAR>-.11848267E-2</BSTAR><MEAN_MOTION_DOT>-.15006E-3</MEAN_MOTION_DOT><MEAN_MOTION_DDOT>0</MEAN_MOTION_DDOT></tleParameters></data></segment></body></omm>
<omm id="CCSDS_OMM_VERS" version="2.0">
<header><CREATION_DATE/><ORIGINATOR/></header><body><segment><metadata><OBJECT_NAME>KUIPER-00009</OBJECT_NAME><OBJECT_ID>2025-088B</OBJECT_ID><CENTER_NAME>EARTH</CENTER_NAME><REF_FRAME>TEME</REF_FRAME><TIME_SYSTEM>UTC</TIME_SYSTEM><MEAN_ELEMENT_THEORY>SGP4</MEAN_ELEMENT_THEORY></metadata><data><meanElements><EPOCH>2025-12-08T21:18:14.105664</EPOCH><MEAN_MOTION>14.79929807</MEAN_MOTION><ECCENTRICITY>.0012966</ECCENTRICITY><INCLINATION>51.9018</INCLINATION><RA_OF_ASC_NODE>148.1422</RA_OF_ASC_NODE><ARG_OF_PERICENTER>149.2236</ARG_OF_PERICENTER><MEAN_ANOMALY>210.9489</MEAN_ANOMALY></meanElements><tleParameters><EPHEMERIS_TYPE>0</EPHEMERIS_TYPE><CLASSIFICATION_TYPE>U</CLASSIFICATION_TYPE><NORAD_CAT_ID>63725</NORAD_CAT_ID><ELEMENT_SET_NO>999</ELEMENT_SET_NO><REV_AT_EPOCH>3433</REV_AT_EPOCH><BSTAR>.25244E-3</BSTAR><MEAN_MOTION_DOT>.1703E-4</MEAN_MOTION_DOT><MEAN_MOTION_DDOT>0</MEAN_MOTION_DDOT></tleParameters></data></segment></body></omm>
<omm id="CCSDS_OMM_VERS" version="2.0">
<header><CREATION_DATE/><ORIGINATOR/></header><body><segment><metadata><OBJECT_NAME>KUIPER-00010</OBJECT_NAME><OBJECT_ID>2025-088C</OBJECT_ID><CENTER_NAME>EARTH</CENTER_NAME><REF_FRAME>TEME</REF_FRAME><TIME_SYSTEM>UTC</TIME_SYSTEM><MEAN_ELEMENT_THEORY>SGP4</MEAN_ELEMENT_THEORY></metadata><data><meanElements><EPOCH>2025-12-08T16:04:08.878944</EPOCH><MEAN_MOTION>14.80364341</MEAN_MOTION><ECCENTRICITY>.0012034</ECCENTRICITY><INCLINATION>51.9010</INCLINATION><RA_OF_ASC_NODE>125.4915</RA_OF_ASC_NODE><ARG_OF_PERICENTER>195.6706</ARG_OF_PERICENTER><MEAN_ANOMALY>164.3885</MEAN_ANOMALY></meanElements><tleParameters><EPHEMERIS_TYPE>0</EPHEMERIS_TYPE><CLASSIFICATION_TYPE>U</CLASSIFICATION_TYPE><NORAD_CAT_ID>63726</NORAD_CAT_ID><ELEMENT_SET_NO>999</ELEMENT_SET_NO><REV_AT_EPOCH>3425</REV_AT_EPOCH><BSTAR>.42795E-3</BSTAR><MEAN_MOTION_DOT>.3077E-4</MEAN_MOTION_DOT><MEAN_MOTION_DDOT>0</MEAN_MOTION_DDOT></tleParameters></data></segment></body></omm>
<omm id="CCSDS_OMM_VERS" version="2.0">
<header><CREATION_DATE/><ORIGINATOR/></header><body><segment><metadata><OBJECT_NAME>KUIPER-00011</OBJECT_NAME><OBJECT_ID>2025-088D</OBJECT_ID><CENTER_NAME>EARTH</CENTER_NAME><REF_FRAME>TEME</REF_FRAME><TIME_SYSTEM>UTC</TIME_SYSTEM><MEAN_ELEMENT_THEORY>SGP4</MEAN_ELEMENT_THEORY></metadata><data><meanElements><EPOCH>2025-12-09T02:35:46.712256</EPOCH><MEAN_MOTION>14.79902277</MEAN_MOTION><ECCENTRICITY>.00146624</ECCENTRICITY><INCLINATION>51.8987</INCLINATION><RA_OF_ASC_NODE>131.2069</RA_OF_ASC_NODE><ARG_OF_PERICENTER>170.7995</ARG_OF_PERICENTER><MEAN_ANOMALY>189.3239</MEAN_ANOMALY></meanElements><tleParameters><EPHEMERIS_TYPE>0</EPHEMERIS_TYPE><CLASSIFICATION_TYPE>U</CLASSIFICATION_TYPE><NORAD_CAT_ID>63727</NORAD_CAT_ID><ELEMENT_SET_NO>999</ELEMENT_SET_NO><REV_AT_EPOCH>3434</REV_AT_EPOCH><BSTAR>-.11222849E-2</BSTAR><MEAN_MOTION_DOT>-.8779E-4</MEAN_MOTION_DOT><MEAN_MOTION_DDOT>0</MEAN_MOTION_DDOT></tleParameters></data></segment></body></omm>
<omm id="CCSDS_OMM_VERS" version="2.0">
<header><CREATION_DATE/><ORIGINATOR/></header><body><segment><metadata><OBJECT_NAME>KUIPER-00012</OBJECT_NAME><OBJECT_ID>2025-088E</OBJECT_ID><CENTER_NAME>EARTH</CENTER_NAME><REF_FRAME>TEME</REF_FRAME><TIME_SYSTEM>UTC</TIME_SYSTEM><MEAN_ELEMENT_THEORY>SGP4</MEAN_ELEMENT_THEORY></metadata><data><meanElements><EPOCH>2025-12-09T01:39:31.034880</EPOCH><MEAN_MOTION>14.76743176</MEAN_MOTION><ECCENTRICITY>.00086177</ECCENTRICITY><INCLINATION>51.9018</INCLINATION><RA_OF_ASC_NODE>114.6788</RA_OF_ASC_NODE><ARG_OF_PERICENTER>179.1803</ARG_OF_PERICENTER><MEAN_ANOMALY>180.9174</MEAN_ANOMALY></meanElements><tleParameters><EPHEMERIS_TYPE>0</EPHEMERIS_TYPE><CLASSIFICATION_TYPE>U</CLASSIFICATION_TYPE><NORAD_CAT_ID>63728</NORAD_CAT_ID><ELEMENT_SET_NO>999</ELEMENT_SET_NO><REV_AT_EPOCH>3452</REV_AT_EPOCH><BSTAR>-.32158385E-3</BSTAR><MEAN_MOTION_DOT>-.2491E-4</MEAN_MOTION_DOT><MEAN_MOTION_DDOT>0</MEAN_MOTION_DDOT></tleParameters></data></segment></body></omm>
<omm id="CCSDS_OMM_VERS" version="2.0">
<header><CREATION_DATE/><ORIGINATOR/></header><body><segment><metadata><OBJECT_NAME>KUIPER-00013</OBJECT_NAME><OBJECT_ID>2025-088F</OBJECT_ID><CENTER_NAME>EARTH</CENTER_NAME><REF_FRAME>TEME</REF_FRAME><TIME_SYSTEM>UTC</TIME_SYSTEM><MEAN_ELEMENT_THEORY>SGP4</MEAN_ELEMENT_THEORY></metadata><data><meanElements><EPOCH>2025-12-08T21:16:54.043968</EPOCH><MEAN_MOTION>14.79930264</MEAN_MOTION><ECCENTRICITY>.000865</ECCENTRICITY><INCLINATION>51.9011</INCLINATION><RA_OF_ASC_NODE>149.6151</RA_OF_ASC_NODE><ARG_OF_PERICENTER>84.6585</ARG_OF_PERICENTER><MEAN_ANOMALY>275.5364</MEAN_ANOMALY></meanElements><tleParameters><EPHEMERIS_TYPE>0</EPHEMERIS_TYPE><CLASSIFICATION_TYPE>U</CLASSIFICATION_TYPE><NORAD_CAT_ID>63729</NORAD_CAT_ID><ELEMENT_SET_NO>999</ELEMENT_SET_NO><REV_AT_EPOCH>3412</REV_AT_EPOCH><BSTAR>.18681E-3</BSTAR><MEAN_MOTION_DOT>.1202E-4</MEAN_MOTION_DOT><MEAN_MOTION_DDOT>0</MEAN_MOTION_DDOT></tleParameters></data></segment></body></omm>
<omm id="CCSDS_OMM_VERS" version="2.0">
<header><CREATION_DATE/><ORIGINATOR/></header><body><segment><metadata><OBJECT_NAME>KUIPER-00014</OBJECT_NAME><OBJECT_ID>2025-088G</OBJECT_ID><CENTER_NAME>EARTH</CENTER_NAME><REF_FRAME>TEME</REF_FRAME><TIME_SYSTEM>UTC</TIME_SYSTEM><MEAN_ELEMENT_THEORY>SGP4</MEAN_ELEMENT_THEORY></metadata><data><meanElements><EPOCH>2025-12-08T21:14:29.056992</EPOCH><MEAN_MOTION>14.79943801</MEAN_MOTION><ECCENTRICITY>.0009979</ECCENTRICITY><INCLINATION>51.9013</INCLINATION><RA_OF_ASC_NODE>150.5927</RA_OF_ASC_NODE><ARG_OF_PERICENTER>144.3867</ARG_OF_PERICENTER><MEAN_ANOMALY>215.7763</MEAN_ANOMALY></meanElements><tleParameters><EPHEMERIS_TYPE>0</EPHEMERIS_TYPE><CLASSIFICATION_TYPE>U</CLASSIFICATION_TYPE><NORAD_CAT_ID>63730</NORAD_CAT_ID><ELEMENT_SET_NO>999</ELEMENT_SET_NO><REV_AT_EPOCH>3392</REV_AT_EPOCH><BSTAR>.20022E-3</BSTAR><MEAN_MOTION_DOT>.1304E-4</MEAN_MOTION_DOT><MEAN_MOTION_DDOT>0</MEAN_MOTION_DDOT></tleParameters></data></segment></body></omm>
<omm id="CCSDS_OMM_VERS" version="2.0">
<header><CREATION_DATE/><ORIGINATOR/></header><body><segment><metadata><OBJECT_NAME>KUIPER-00015</OBJECT_NAME><OBJECT_ID>2025-088H</OBJECT_ID><CENTER_NAME>EARTH</CENTER_NAME><REF_FRAME>TEME</REF_FRAME><TIME_SYSTEM>UTC</TIME_SYSTEM><MEAN_ELEMENT_THEORY>SGP4</MEAN_ELEMENT_THEORY></metadata><data><meanElements><EPOCH>2025-12-08T19:05:13.232256</EPOCH><MEAN_MOTION>14.81951152</MEAN_MOTION><ECCENTRICITY>.00112042</ECCENTRICITY><INCLINATION>51.8976</INCLINATION><RA_OF_ASC_NODE>162.0300</RA_OF_ASC_NODE><ARG_OF_PERICENTER>133.9503</ARG_OF_PERICENTER><MEAN_ANOMALY>226.2387</MEAN_ANOMALY></meanElements><tleParameters><EPHEMERIS_TYPE>0</EPHEMERIS_TYPE><CLASSIFICATION_TYPE>U</CLASSIFICATION_TYPE><NORAD_CAT_ID>63731</NORAD_CAT_ID><ELEMENT_SET_NO>999</ELEMENT_SET_NO><REV_AT_EPOCH>3421</REV_AT_EPOCH><BSTAR>.43987801E-3</BSTAR><MEAN_MOTION_DOT>.3296E-4</MEAN_MOTION_DOT><MEAN_MOTION_DDOT>0</MEAN_MOTION_DDOT></tleParameters></data></segment></body></omm>

</ndm>
